NORAD_CAT_ID,OBJECT_NAME,OBJECT_TYPE,EPOCH,MEAN_MOTION,ECCENTRICITY,INCLINATION,RA_OF_ASC_NODE,ARG_OF_PERICENTER,MEAN_ANOMALY,BSTAR,MEAN_MOTION_DOT,MEAN_MOTION_DDOT,TLE_LINE0,TLE_LINE1,TLE_LINE2,SEMIMAJOR_AXIS,PERIOD,APOGEE,PERIGEE,DECAYED
52291.0,STARLINK-3773,PAYLOAD,2022-06-03 15:25:01,15.73232238,0.0004276,53.2157,162.2186,10.722,349.3891,4.3736e-05,5.528e-05,0.0,0 STARLINK-3773,1 52291U 22041AG  22154.64237650  .00005528  00000-0  43736-4 0  9992,2 52291  53.2157 162.2186 0004276  10.7220 349.3891 15.73232238  7999,6727.803000000001,91.531,352.545,346.791,0.0
52291.0,STARLINK-3773,PAYLOAD,2022-06-04 05:08:28,15.73018496,0.000377,53.2158,159.3878,3.3712,356.7333,-0.00031484,-0.00044255,0.0,0 STARLINK-3773,1 52291U 22041AG  22155.21422341 -.00044255  00000-0 -31484-3 0  9997,2 52291  53.2158 159.3878 0003770   3.3712 356.7333 15.73018496  8089,6728.413000000001,91.544,352.814,347.741,0.0
52291.0,STARLINK-3773,PAYLOAD,2022-06-04 09:43:19,15.72288469,0.0003966,53.2155,158.4466,356.4124,3.6867,-0.0019935,-0.00261672,0.0,0 STARLINK-3773,1 52291U 22041AG  22155.40508756 -.00261672  00000-0 -19935-2 0  9993,2 52291  53.2155 158.4466 0003966 356.4124   3.6867 15.72288469  8117,6730.495,91.586,355.03,349.691,0.0
52291.0,STARLINK-3773,PAYLOAD,2022-06-05 22:00:00,15.70469459,0.000396,53.2172,150.9657,326.1257,312.9956,-0.0060964,-0.00702462,0.0,0 STARLINK-3773,1 52291U 22041AG  22156.91667824 -.00702462  00000-0 -60964-2 0  9997,2 52291  53.2172 150.9657 0003960 326.1257 312.9956 15.70469459  8359,6735.691,91.692,360.224,354.889,0.0
52291.0,STARLINK-3773,PAYLOAD,2022-06-06 14:00:01,15.69466367,0.0004053,53.2172,147.6803,252.7703,196.4267,-0.0066357,-0.0073066999999999,0.0,0 STARLINK-3773,1 52291U 22041AG  22157.58334491 -.00730670  00000-0 -66357-2 0  9996,2 52291  53.2172 147.6803 0004053 252.7703 196.4267 15.69466367  8453,6738.561,91.751,363.157,357.695,0.0
52291.0,STARLINK-3773,PAYLOAD,2022-06-06 22:00:00,15.68954447,0.0001549,53.2174,146.0372,281.4752,251.8458,-0.0067622,-0.00728357,0.0,0 STARLINK-3773,1 52291U 22041AG  22157.91667824 -.00728357  00000-0 -67622-2 0  9997,2 52291  53.2174 146.0372 0001549 281.4752 251.8458 15.68954447  1304,6740.026999999999,91.781,362.936,360.848,0.0
52291.0,STARLINK-3773,PAYLOAD,2022-06-07 14:00:01,15.67928374,9.5e-05,53.2173,142.7592,101.7375,237.9908,-0.0069318,-0.00716523,0.0,0 STARLINK-3773,1 52291U 22041AG  22158.58334491 -.00716523  00000-0 -69318-2 0  9998,2 52291  53.2173 142.7592 0000950 101.7375 237.9908 15.67928374  1304,6742.967,91.841,365.472,364.191,0.0
52291.0,STARLINK-3773,PAYLOAD,2022-06-07 22:00:00,15.67417935,0.0001063,53.2173,141.1199,75.6466,346.3661,-0.0070689,-0.00715643,0.0,0 STARLINK-3773,1 52291U 22041AG  22158.91667824 -.00715643  00000-0 -70689-2 0  9999,2 52291  53.2173 141.1199 0001063  75.6466 346.3661 15.67417935  8669,6744.431,91.871,367.013,365.579,0.0
52291.0,STARLINK-3773,PAYLOAD,2022-06-08 14:00:01,15.66400335,0.0001197,53.2174,137.8491,96.481,128.2596,-0.0074151,-0.00719833,0.0,0 STARLINK-3773,1 52291U 22041AG  22159.58334491 -.00719833  00000-0 -74151-2 0  9997,2 52291  53.2174 137.8491 0001197  96.4810 128.2596 15.66400335  1302,6747.351,91.931,370.024,368.409,0.0
52291.0,STARLINK-3773,PAYLOAD,2022-06-08 22:00:01,15.6588758,0.0001123,53.2176,136.2137,83.0652,222.1874,-0.0075051,-0.00714081,0.0,0 STARLINK-3773,1 52291U 22041AG  22159.91668981 -.00714081  00000-0 -75051-2 0  9998,2 52291  53.2176 136.2137 0001123  83.0652 222.1874 15.65887580  8826,6748.824000000001,91.961,371.447,369.931,0.0
52291.0,STARLINK-3773,PAYLOAD,2022-06-09 14:00:01,15.64869168,0.0001067,53.2172,132.9503,85.8194,18.4194,-0.007853,-0.00716912,0.0,0 STARLINK-3773,1 52291U 22041AG  22160.58334491 -.00716912  00000-0 -78530-2 0  9999,2 52291  53.2172 132.9503 0001067  85.8194  18.4194 15.64869168  1308,6751.752,92.02,374.337,372.897,0.0
52291.0,STARLINK-3773,PAYLOAD,2022-06-09 22:00:00,15.64359002,0.0001248,53.2174,131.3188,85.2092,97.6368,-0.007994,-0.00715233,0.0,0 STARLINK-3773,1 52291U 22041AG  22160.91667824 -.00715233  00000-0 -79940-2 0  9996,2 52291  53.2174 131.3188 0001248  85.2092  97.6368 15.64359002  8988,6753.22,92.05,375.92800000000005,374.242,0.0
52291.0,STARLINK-3773,PAYLOAD,2022-06-10 14:00:01,15.6333997,0.0001054,53.2174,128.0623,97.1903,241.0311,-0.0083582999999999,-0.00717877,0.0,0 STARLINK-3773,1 52291U 22041AG  22161.58334491 -.00717877  00000-0 -83583-2 0  9995,2 52291  53.2174 128.0623 0001054  97.1903 241.0311 15.63339970  1306,6756.154,92.11,378.731,377.307,0.0
52291.0,STARLINK-3773,PAYLOAD,2022-06-10 22:00:00,15.62827634,0.0001069,53.2175,126.4346,84.7645,330.2267,-0.0084716,-0.00713436,0.0,0 STARLINK-3773,1 52291U 22041AG  22161.91667824 -.00713436  00000-0 -84716-2 0  9997,2 52291  53.2175 126.4346 0001069  84.7645 330.2267 15.62827634  9130,6757.630999999999,92.141,380.218,378.773,0.0
52291.0,STARLINK-3773,PAYLOAD,2022-06-11 22:00:00,15.61298953,0.0001177,53.2176,121.5619,90.463,191.1567,-0.0090083,-0.00714495,0.0,0 STARLINK-3773,1 52291U 22041AG  22162.91667824 -.00714495  00000-0 -90083-2 0  9998,2 52291  53.2176 121.5619 0001177  90.4630 191.1567 15.61298953  9297,6762.041,92.231,384.702,383.11,0.0
52291.0,STARLINK-3773,PAYLOAD,2022-06-12 14:00:01,15.60279163,0.0001035,53.2173,118.3203,87.5625,342.0795,-0.0093861,-0.00715503,0.0,0 STARLINK-3773,1 52291U 22041AG  22163.58334491 -.00715503  00000-0 -93861-2 0  9991,2 52291  53.2173 118.3203 0001035  87.5625 342.0795 15.60279163  1306,6764.986999999999,92.291,387.552,386.152,0.0
52291.0,STARLINK-3773,PAYLOAD,2022-06-12 22:00:00,15.59767808,0.0001226,53.2174,116.7004,79.8384,62.8962,-0.009532,-0.00712745,0.0,0 STARLINK-3773,1 52291U 22041AG  22163.91667824 -.00712745  00000-0 -95320-2 0  9994,2 52291  53.2174 116.7004 0001226  79.8384  62.8962 15.59767808  9448,6766.465999999999,92.321,389.16,387.501,0.0
52291.0,STARLINK-3773,PAYLOAD,2022-06-13 14:00:01,15.58751191,0.0001165,53.2174,113.4659,97.0018,190.0771,-0.010001,-0.00718727,0.0,0 STARLINK-3773,1 52291U 22041AG  22164.58334491 -.00718727  00000-0 -10001-1 0  9997,2 52291  53.2174 113.4659 0001165  97.0018 190.0771 15.58751191  1302,6769.406999999997,92.382,392.061,390.484,0.0
52291.0,STARLINK-3773,PAYLOAD,2022-06-13 22:00:00,15.582394199999998,0.0001064,53.2176,111.85,89.0411,269.2919,-0.010138,-0.00714858,0.0,0 STARLINK-3773,1 52291U 22041AG  22164.91667824 -.00714858  00000-0 -10138-1 0  9995,2 52291  53.2176 111.8500 0001064  89.0411 269.2919 15.58239420  9607,6770.889,92.412,393.475,392.034,0.0
52291.0,STARLINK-3773,PAYLOAD,2022-06-14 14:00:01,15.57218671,0.0001177,53.2174,108.6226,74.7713,64.2309,-0.010518,-0.00713707,0.0,0 STARLINK-3773,1 52291U 22041AG  22165.58334491 -.00713707  00000-0 -10518-1 0  9994,2 52291  53.2174 108.6226 0001177  74.7713  64.2309 15.57218671  1304,6773.848000000001,92.473,396.51,394.916,0.0
52291.0,STARLINK-3773,PAYLOAD,2022-06-14 22:00:00,15.56707999,0.0001273,53.2176,107.0106,84.0007,124.4169,-0.010698,-0.00712273,0.0,0 STARLINK-3773,1 52291U 22041AG  22165.91667824 -.00712273  00000-0 -10698-1 0  9996,2 52291  53.2176 107.0106 0001273  84.0007 124.4169 15.56707999  9769,6775.329000000002,92.503,398.057,396.332,0.0
52291.0,STARLINK-3773,PAYLOAD,2022-06-15 14:00:01,15.5568949,0.0001055,53.2174,103.7905,93.3839,252.0254,-0.011161,-0.00715065,0.0,0 STARLINK-3773,1 52291U 22041AG  22166.58334491 -.00715065  00000-0 -11161-1 0  9999,2 52291  53.2174 103.7905 0001055  93.3839 252.0254 15.55689490  1300,6778.286,92.563,400.866,399.436,0.0
52291.0,STARLINK-3773,PAYLOAD,2022-06-15 22:00:00,15.55179876,0.0001072,53.2175,102.1825,85.2579,327.7279,-0.011377,-0.0071523,0.0,0 STARLINK-3773,1 52291U 22041AG  22166.91667824 -.00715230  00000-0 -11377-1 0  9998,2 52291  53.2175 102.1825 0001072  85.2579 327.7279 15.55179876  9919,6779.767,92.594,402.359,400.905,0.0
52291.0,STARLINK-3773,PAYLOAD,2022-06-16 02:00:01,15.54923617,0.00012,53.2172,101.38,90.3734,176.1706,-0.011446,-0.00713001,0.0,0 STARLINK-3773,1 52291U 22041AG  22167.08334491 -.00713001  00000-0 -11446-1 0  9999,2 52291  53.2172 101.3800 0001200  90.3734 176.1706 15.54923617  1308,6780.512,92.609,403.19,401.56300000000016,0.0
52291.0,STARLINK-3773,PAYLOAD,2022-06-19 14:00:01,15.49880502,0.0001208,53.2174,84.5752,89.7004,306.4231,0.00020119,0.00010981,0.0,0 STARLINK-3773,1 52291U 22041AG  22170.58334491  .00010981  00000-0  20119-3 0  9992,2 52291  53.2174  84.5752 0001208  89.7004 306.4231 15.49880502  1308,6795.212,92.91,417.898,416.256,0.0
52291.0,STARLINK-3773,PAYLOAD,2022-06-19 22:00:00,15.50113742,0.0001004,53.2165,82.9854,84.8475,12.233,-0.014347,-0.0075718,0.0,0 STARLINK-3773,1 52291U 22041AG  22170.91667824 -.00757180  00000-0 -14347-1 0  9993,2 52291  53.2165  82.9854 0001004  84.8475  12.2330 15.50113742  1304,6794.531,92.896,417.078,415.714,0.0
52291.0,STARLINK-3773,PAYLOAD,2022-06-20 06:00:00,15.49734386,0.0001278,53.2168,81.39,91.5493,66.3306,-0.010713,-0.005636,0.0,0 STARLINK-3773,1 52291U 22041AG  22171.25001157 -.00563600  00000-0 -10713-1 0  9997,2 52291  53.2168  81.3900 0001278  91.5493  66.3306 15.49734386 10595,6795.639,92.919,418.37300000000016,416.636,0.0
52291.0,STARLINK-3773,PAYLOAD,2022-06-20 12:00:00,15.49455016,0.0001156,53.2174,80.1918,77.3198,35.9819,-0.013915,-0.00720302,0.0,0 STARLINK-3773,1 52291U 22041AG  22171.50001157 -.00720302  00000-0 -13915-1 0  9996,2 52291  53.2174  80.1918 0001156  77.3198  35.9819 15.49455016 10622,6796.456,92.936,419.107,417.536,0.0
52291.0,STARLINK-3773,PAYLOAD,2022-06-20 14:00:01,15.49326429,0.0001252,53.2174,79.7927,85.2027,133.179,-0.013937,-0.0071833,0.0,0 STARLINK-3773,1 52291U 22041AG  22171.58334491 -.00718330  00000-0 -13937-1 0  9996,2 52291  53.2174  79.7927 0001252  85.2027 133.1790 15.49326429  1301,6796.831999999999,92.944,419.548,417.846,0.0
